$$SOE
2460728.500000000, A.D. 2025-Feb-22 00:00:00.0000, 1.682064478622943E+08, 9.583165692530786E+07, -1.010794570382902E+07,
2460735.500000000, A.D. 2025-Mar-01 00:00:00.0000, 1.641519786710110E+08, 1.124843402697195E+08, -1.052008228685234E+07,
2460742.500000000, A.D. 2025-Mar-08 00:00:00.0000, 1.590899303655042E+08, 1.284482440727491E+08, -1.086770193019233E+07,
2460749.500000000, A.D. 2025-Mar-15 00:00:00.0000, 1.531276784672851E+08, 1.436868861403155E+08, -1.115387966845123E+07,
2460756.500000000, A.D. 2025-Mar-22 00:00:00.0000, 1.463653447919595E+08, 1.581762429069246E+08, -1.138182813571267E+07,
2460763.500000000, A.D. 2025-Mar-29 00:00:00.0000, 1.388954247498579E+08, 1.719023096810019E+08, -1.155479830008820E+07,
2460770.500000000, A.D. 2025-Apr-05 00:00:00.0000, 1.308027985476899E+08, 1.848590252117606E+08, -1.167600829031932E+07,
2460777.500000000, A.D. 2025-Apr-12 00:00:00.0000, 1.221649919342284E+08, 1.970465421499065E+08, -1.174859413671175E+07,
2460784.500000000, A.D. 2025-Apr-19 00:00:00.0000, 1.130525885347503E+08, 2.084698073868621E+08, -1.177557731682850E+07,
2460791.500000000, A.D. 2025-Apr-26 00:00:00.0000, 1.035297244420055E+08, 2.191374106343530E+08, -1.175984490357712E+07,
2460798.500000000, A.D. 2025-May-03 00:00:00.0000, 9.365461731452893E+07, 2.290606596315771E+08, -1.170413895197442E+07,
2460805.500000000, A.D. 2025-May-10 00:00:00.0000, 8.348009830801772E+07, 2.382528434232678E+08, -1.161105251254342E+07,
2460812.500000000, A.D. 2025-May-17 00:00:00.0000, 7.305412682704043E+07, 2.467286496356198E+08, -1.148303029141465E+07,
2460819.500000000, A.D. 2025-May-24 00:00:00.0000, 6.242027640632954E+07, 2.545037065989674E+08, -1.132237249198800E+07,
2460826.500000000, A.D. 2025-May-31 00:00:00.0000, 5.161818588033757E+07, 2.615942262876180E+08, -1.113124075653586E+07,
2460833.500000000, A.D. 2025-Jun-07 00:00:00.0000, 4.068397292518314E+07, 2.680167292319666E+08, -1.091166527884722E+07,
2460840.500000000, A.D. 2025-Jun-14 00:00:00.0000, 2.965060751233612E+07, 2.737878343746513E+08, -1.066555235627565E+07,
2460847.500000000, A.D. 2025-Jun-21 00:00:00.0000, 1.854824785433469E+07, 2.789240973587454E+08, -1.039469235364142E+07,
2460854.500000000, A.D. 2025-Jun-28 00:00:00.0000, 7.404544200355395E+06, 2.834418884178044E+08, -1.010076794617939E+07,
2460861.500000000, A.D. 2025-Jul-05 00:00:00.0000, -3.755088341855797E+06, 2.873573035340158E+08, -9.785362143568784E+06,
2460868.500000000, A.D. 2025-Jul-12 00:00:00.0000, -1.490722630856411E+07, 2.906861012683401E+08, -9.449965930626869E+06,
2460875.500000000, A.D. 2025-Jul-19 00:00:00.0000, -2.603022069560013E+07, 2.934436592918034E+08, -9.095985515745714E+06,
2460882.500000000, A.D. 2025-Jul-26 00:00:00.0000, -3.710400317134041E+07, 2.956449462810786E+08, -8.724749172030196E+06,
2460889.500000000, A.D. 2025-Aug-02 00:00:00.0000, -4.810991309308962E+07, 2.973045058082417E+08, -8.337513660097614E+06,
2460896.500000000, A.D. 2025-Aug-09 00:00:00.0000, -5.903054298132052E+07, 2.984364495268048E+08, -7.935470236745328E+06,
2460903.500000000, A.D. 2025-Aug-16 00:00:00.0000, -6.984960026845749E+07, 2.990544574721815E+08, -7.519750273362443E+06,
2460910.500000000, A.D. 2025-Aug-23 00:00:00.0000, -8.055178313599904E+07, 2.991717838244146E+08, -7.091430528198212E+06,
2460917.500000000, A.D. 2025-Aug-30 00:00:00.0000, -9.112266842041041E+07, 2.988012675389371E+08, -6.651538067392528E+06,
2460924.500000000, A.D. 2025-Sep-06 00:00:00.0000, -1.015486115006839E+08, 2.979553478295084E+08, -6.201054649304926E+06,
2460931.500000000, A.D. 2025-Sep-13 00:00:00.0000, -1.118166584897067E+08, 2.966460812273820E+08, -5.740920648988232E+06,
2460938.500000000, A.D. 2025-Sep-20 00:00:00.0000, -1.219144662588926E+08, 2.948851579369474E+08, -5.272038981615201E+06,
2460945.500000000, A.D. 2025-Sep-27 00:00:00.0000, -1.318302281920503E+08, 2.926839201152540E+08, -4.795278892450482E+06,
2460952.500000000, A.D. 2025-Oct-04 00:00:00.0000, -1.415526067585026E+08, 2.900533822503926E+08, -4.311479409124255E+06,
2460959.500000000, A.D. 2025-Oct-11 00:00:00.0000, -1.510706724683081E+08, 2.870042524181422E+08, -3.821452521228552E+06,
2460966.500000000, A.D. 2025-Oct-18 00:00:00.0000, -1.603738482191550E+08, 2.835469539547389E+08, -3.325986158160254E+06,
2460973.500000000, A.D. 2025-Oct-25 00:00:00.0000, -1.694518582651701E+08, 2.796916474432690E+08, -2.825847000020862E+06,
2460980.500000000, A.D. 2025-Nov-01 00:00:00.0000, -1.782946812000696E+08, 2.754482529636445E+08, -2.321783145545214E+06,
2460987.500000000, A.D. 2025-Nov-08 00:00:00.0000, -1.868925064112526E+08, 2.708264725415426E+08, -1.814526662394613E+06,
2460994.500000000, A.D. 2025-Nov-15 00:00:00.0000, -1.952356934052693E+08, 2.658358127325781E+08, -1.304796056063548E+06,
2461001.500000000, A.D. 2025-Nov-22 00:00:00.0000, -2.033147332021555E+08, 2.604856075838186E+08, -7.932986930852979E+05,
2461008.500000000, A.D. 2025-Nov-29 00:00:00.0000, -2.111202115986207E+08, 2.547850431562397E+08, -2.807330877674520E+05,
2461015.500000000, A.D. 2025-Dec-06 00:00:00.0000, -2.186427762656219E+08, 2.487431835495106E+08, 2.322091293728799E+05,
2461022.500000000, A.D. 2025-Dec-13 00:00:00.0000, -2.258731069611196E+08, 2.423689951604977E+08, 7.448412309939861E+05,
2461029.500000000, A.D. 2025-Dec-20 00:00:00.0000, -2.328018851029408E+08, 2.356713703080270E+08, 1.256479150100470E+06,
2461036.500000000, A.D. 2025-Dec-27 00:00:00.0000, -2.394197635547618E+08, 2.286591529477079E+08, 1.766439271465346E+06,
2461043.500000000, A.D. 2026-Jan-03 00:00:00.0000, -2.457173378875947E+08, 2.213411660279379E+08, 2.274036326156616E+06,
2461050.500000000, A.D. 2026-Jan-10 00:00:00.0000, -2.516851188240061E+08, 2.137262399933382E+08, 2.778581309942484E+06,
2461057.500000000, A.D. 2026-Jan-17 00:00:00.0000, -2.573135054704718E+08, 2.058232425493492E+08, 3.279379383486152E+06,
2461064.500000000, A.D. 2026-Jan-24 00:00:00.0000, -2.625927591190230E+08, 1.976411099431212E+08, 3.775727735595748E+06,
2461071.500000000, A.D. 2026-Jan-31 00:00:00.0000, -2.675129774727105E+08, 1.891888800164450E+08, 4.266913393102080E+06,
2461078.500000000, A.D. 2026-Feb-07 00:00:00.0000, -2.720640691287493E+08, 1.804757272700962E+08, 4.752210953066863E+06,
2461085.500000000, A.D. 2026-Feb-14 00:00:00.0000, -2.762357279782801E+08, 1.715110002572353E+08, 5.230880198405139E+06,
2461092.500000000, A.D. 2026-Feb-21 00:00:00.0000, -2.800174070649477E+08, 1.623042622540726E+08, 5.702163593342848E+06,
2461099.500000000, A.D. 2026-Feb-28 00:00:00.0000, -2.833982929413731E+08, 1.528653367737833E+08, 6.165283836196110E+06,
2461106.500000000, A.D. 2026-Mar-07 00:00:00.0000, -2.863672825727391E+08, 1.432043564380045E+08, 6.619441481299162E+06,
2461113.500000000, A.D. 2026-Mar-14 00:00:00.0000, -2.889129600385873E+08, 1.333318134030342E+08, 7.063812166820660E+06,
2461120.500000000, A.D. 2026-Mar-21 00:00:00.0000, -2.910235713117889E+08, 1.232586148341915E+08, 7.497543504331529E+06,
2461127.500000000, A.D. 2026-Mar-28 00:00:00.0000, -2.926869992486736E+08, 1.129961451322270E+08, 7.919751880012654E+06,
2461134.500000000, A.D. 2026-Apr-04 00:00:00.0000, -2.938907395874283E+08, 1.025563347281150E+08, 8.329519124322087E+06,
2461141.500000000, A.D. 2026-Apr-11 00:00:00.0000, -2.946218779393772E+08, 9.195173597731514E+07, 8.725888975981858E+06,
2461148.500000000, A.D. 2026-Apr-18 00:00:00.0000, -2.948670679608498E+08, 8.119560715166955E+07, 9.107863305366956E+06,
2461155.500000000, A.D. 2026-Apr-25 00:00:00.0000, -2.946125111264415E+08, 7.030200568008842E+07, 9.474398074409563E+06,
2461162.500000000, A.D. 2026-May-02 00:00:00.0000, -2.938439386919620E+08, 5.928589189641818E+07, 9.824399008495305E+06,
2461169.500000000, A.D. 2026-May-09 00:00:00.0000, -2.925465965334477E+08, 4.816324468775065E+07, 1.015671694588631E+07,
2461176.500000000, A.D. 2026-May-16 00:00:00.0000, -2.907052335370856E+08, 3.695119083247762E+07, 1.047014282673981E+07,
2461183.500000000, A.D. 2026-May-23 00:00:00.0000, -2.883040948461138E+08, 2.566815091204379E+07, 1.076340239085427E+07,
2461190.500000000, A.D. 2026-May-30 00:00:00.0000, -2.853269237896752E+08, 1.433400420517852E+07, 1.103515079858112E+07,
2461197.500000000, A.D. 2026-Jun-06 00:00:00.0000, -2.817569750554388E+08, 2.970271626268595E+06, 1.128396694529849E+07,
2461204.500000000, A.D. 2026-Jun-13 00:00:00.0000, -2.775770383003588E+08, -8.399680492507011E+06, 1.150834717549777E+07,
2461211.500000000, A.D. 2026-Jun-20 00:00:00.0000, -2.727694763042729E+08, -1.975040999207419E+07, 1.170669873143204E+07,
2461218.500000000, A.D. 2026-Jun-27 00:00:00.0000, -2.673162839102291E+08, -3.105413913274042E+07, 1.187733314442167E+07,
2461225.500000000, A.D. 2026-Jul-04 00:00:00.0000, -2.611991735220009E+08, -4.228046308985734E+07, 1.201845962743875E+07,
2461232.500000000, A.D. 2026-Jul-11 00:00:00.0000, -2.543996942334856E+08, -5.339602363277257E+07, 1.212817861737335E+07,
2461239.500000000, A.D. 2026-Jul-18 00:00:00.0000, -2.468993937693925E+08, -6.436414491844052E+07, 1.220447572699722E+07,
2461246.500000000, A.D. 2026-Jul-25 00:00:00.0000, -2.386800348622913E+08, -7.514442879800446E+07, 1.224521648427321E+07,
2461253.500000000, A.D. 2026-Aug-01 00:00:00.0000, -2.297238805478911E+08, -8.569230801148379E+07, 1.224814238077339E+07,
2461260.500000000, A.D. 2026-Aug-08 00:00:00.0000, -2.200140661728632E+08, -9.595855729455277E+07, 1.221086893535685E+07,
2461267.500000000, A.D. 2026-Aug-15 00:00:00.0000, -2.095350798504351E+08, -1.058887646584443E+08, 1.213088676184649E+07,
2461274.500000000, A.D. 2026-Aug-22 00:00:00.0000, -1.982733790588381E+08, -1.154227685740955E+08, 1.200556713976493E+07,
2461281.500000000, A.D. 2026-Aug-29 00:00:00.0000, -1.862181778912114E+08, -1.244940757740651E+08, 1.183217394890161E+07,
2461288.500000000, A.D. 2026-Sep-05 00:00:00.0000, -1.733624404837580E+08, -1.330292852389630E+08, 1.160788384337152E+07,
2461295.500000000, A.D. 2026-Sep-12 00:00:00.0000, -1.597041206988278E+08, -1.409475519027999E+08, 1.132981760869183E+07,
$$EOE